AMAZONAS 3              
1 39078U 13006A   18317.02457007 -.00000284  00000-0  00000+0 0  9996
2 39078   0.0299 181.0448 0004757  46.3730 132.5692  1.00273255 21164
AZERSPACE 1             
1 39079U 13006B   18316.72836334  .00000131  00000-0  00000+0 0  9997
2 39079   0.0233  68.7371 0001281 173.4554 117.8217  1.00271113 21120
EUTELSAT 117 WEST A     
1 39122U 13012A   18316.18198609 -.00000016  00000-0  00000+0 0  9992
2 39122   0.0595  90.7354 0002855 147.3048 121.9590  1.00271926 20651
ANIK G1                 
1 39127U 13014A   18317.15294518 -.00000076  00000-0  00000+0 0  9999
2 39127   0.0188 291.3011 0002566 318.5480 110.1507  1.00272650 20455
CHINASAT 11 (ZX 11)     
1 39157U 13020A   18317.37480031 -.00000292  00000-0  00000+0 0  9990
2 39157   0.0059 201.6534 0003722  80.6961   3.0247  1.00269466 20345
EUTELSAT 7B             
1 39163U 13022A   18316.83637126  .00000046  00000-0  00000+0 0  9994
2 39163   0.0562  49.6218 0002565 273.8545  36.5335  1.00272192 20189
SES-6                   
1 39172U 13026A   18316.96789025 -.00000263  00000-0  00000+0 0  9990
2 39172   0.0383  58.7941 0001762 173.2050 128.0122  1.00271419 19928
IRNSS-1A                
1 39199U 13034A   18316.00029010  .00000112  00000-0  00000-0 0  9997
2 39199  29.7130 106.3119 0021395 175.9623 184.0155  1.00268370 19550
ALPHASAT                
1 39215U 13038A   18315.85675983  .00000134  00000-0  00000+0 0  9991
2 39215   2.0668  24.7717 0001976 194.0361 165.4241  1.00273893 19454
INSAT-3D                
1 39216U 13038B   18316.62821358 -.00000159  00000-0  00000+0 0  9995
2 39216   0.0113 335.7100 0001060 226.6279 157.6846  1.00273914 19495
EUTELSAT 25B            
1 39233U 13044A   18316.78501676  .00000142  00000-0  00000-0 0  9998
2 39233   0.0505 357.2175 0001971 227.3732 135.4206  1.00278887 18827
GSAT-7                  
1 39234U 13044B   18316.65049170 -.00000079  00000-0  00000+0 0  9990
2 39234   0.0489 108.1998 0009300 152.5521  99.1699  1.00272796 19099
AMOS-4                  
1 39237U 13045A   18316.67569150  .00000005  00000-0  00000+0 0  9999
2 39237   0.0266 270.7292 0000499 116.1213 333.1794  1.00271803 19086
ASTRA 2E                
1 39285U 13056A   18316.77682062  .00000149  00000-0  00000+0 0  9992
2 39285   0.0583 349.7866 0002309 232.1998 138.0230  1.00273270 18789
SIRIUS FM-6             
1 39360U 13058A   18316.18024265 -.00000020  00000-0  00000+0 0  9997
2 39360   0.0270 285.6410 0000609 226.0769 208.3126  1.00270114 18530
RADUGA-1M 3             
1 39375U 13062A   18317.53383168 -.00000040  00000-0  00000+0 0  9990
2 39375   0.0107 222.4085 0002329  24.9755  67.4309  1.00272954 18321
SES-8                   
1 39460U 13071A   18316.59262430 -.00000271  00000-0  00000+0 0  9994
2 39460   0.0143 276.6012 0001288 250.4682 192.9611  1.00270803 18067
INMARSAT 5-F1           
1 39476U 13073A   18316.68234791  .00000026  00000-0  00000+0 0  9999
2 39476   0.0186 292.6796 0000227  87.5494 339.7993  1.00271355 18124
TKSAT-1 (TUPAC KATARI)  
1 39481U 13075A   18317.49260557 -.00000196  00000-0  00000+0 0  9995
2 39481   0.0513  95.9283 0001451 135.3882 271.4310  1.00271494 18042
EXPRESS-AM5             
1 39487U 13077A   18314.95473730 -.00000283  00000-0  00000+0 0  9997
2 39487   0.0095 300.4229 0000567  70.8296 162.5702  1.00274708 18547
GSAT-14                 
1 39498U 14001A   18316.65086513 -.00000079  00000-0  00000+0 0  9998
2 39498   0.0144 268.8202 0001898 261.2825 189.9282  1.00272052 17774
THAICOM 6               
1 39500U 14002A   18317.11438167 -.00000123  00000-0  00000+0 0  9991
2 39500   0.0608 115.8003 0003055  82.5853 333.4566  1.00274923 17719
TDRS 12                 
1 39504U 14004A   18316.90324079 -.00000277  00000-0  00000+0 0  9999
2 39504   5.3866 336.1290 0003265 280.1749  79.6647  1.00264177 17647
ABS-2                   
1 39508U 14006A   18316.64808510 -.00000089  00000-0  00000-0 0  9995
2 39508   0.0131   0.6962 0002242 239.4233 119.8853  1.00273218 17491
ATHENA-FIDUS            
1 39509U 14006B   18316.75105581  .00000152  00000-0  00000+0 0  9995
2 39509   0.0122 292.7667 0001075 298.6032 128.6477  1.00272128 17696
TURKSAT 4A              
1 39522U 14007A   18316.73933088  .00000144  00000-0  00000+0 0  9991
2 39522   0.0488 273.7055 0004098 318.4408 127.8438  1.00272991 17407
EXPRESS-AT1             
1 39612U 14010A   18316.66120248  .00000076  00000-0  00000+0 0  9997
2 39612   0.0026 310.2685 0000189 243.2056 152.3047  1.00272546 17238
EXPRESS-AT2             
1 39613U 14010B   18315.45746900 -.00000285  00000-0  00000+0 0  9996
2 39613   0.0096 313.0288 0000171 283.7942 118.2745  1.00270079 17055
AMAZONAS 4A             
1 39616U 14011A   18317.06058741 -.00000254  00000-0  00000+0 0  9994
2 39616   0.0860  81.0930 0003403 152.2146 126.6883  1.00273031 17068
ASTRA 5B                
1 39617U 14011B   18316.87161572  .00000153  00000-0  00000-0 0  9998
2 39617   0.0384 311.2226 0003651 271.2030 174.8381  1.00274566 16853
IRNSS-1B                
1 39635U 14017A   18316.50002231  .00000073  00000-0  00000-0 0  9991
2 39635  28.9329 286.7085 0019534 188.4720 171.4561  1.00276779 16785
LUCH 5V                 
1 39727U 14023A   18317.46412654 -.00000271  00000-0  00000+0 0  9990
2 39727   1.6724 300.6837 0001832 331.0116  42.6281  1.00276090534725
KAZSAT-3                
1 39728U 14023B   18316.69367106  .00000058  00000-0  00000-0 0  9999
2 39728   0.0120 276.9967 0000293  11.8781  71.1494  1.00270630 14640
EUTELSAT 3B             
1 39773U 14030A   18316.86594537  .00000018  00000-0  00000-0 0  9992
2 39773   0.0680 340.0540 0005496 227.1722 159.5684  1.00272008 16250
ASIASAT 8               
1 40107U 14046A   18316.86648625 -.00000035  00000-0  00000+0 0  9999
2 40107   0.0141 283.7282 0001640 295.3363 140.9510  1.00271720 15695
ASIASAT 6               
1 40141U 14052A   18316.71716066 -.00000364  00000-0  00000+0 0  9998
2 40141   0.0330  92.5186 0000332 122.2460 215.1380  1.00271561 15351
OPTUS 10                
1 40146U 14054A   18317.42082134 -.00000148  00000-0  00000+0 0  9996
2 40146   0.0606  33.1382 0004080 180.7497 146.1133  1.00269665 15322
MEASAT-3B               
1 40147U 14054B   18316.60224193 -.00000244  00000-0  00000+0 0  9996
2 40147   0.0399  44.2794 0001160 241.2839  74.4510  1.00273237 15367
LUCH (OLYMP)            
1 40258U 14058A   18317.45107766  .00000070  00000-0  00000+0 0  9999
2 40258   0.0565  79.6311 0000927 124.2049  68.0388  1.00273580 15133
HIMAWARI-8              
1 40267U 14060A   18317.46334894 -.00000276  00000-0  00000+0 0  9996
2 40267   0.0387  98.2887 0000902 130.3498 131.3813  1.00273860 15069
IRNSS-1C                
1 40269U 14061A   18317.24833048 -.00000162  00000-0  00000+0 0  9994
2 40269   2.1742 224.2241 0021825  16.2262 344.3348  1.00271961 15016
INTELSAT 30 (IS-30)     
1 40271U 14062A   18317.49783569 -.00000152  00000-0  00000+0 0  9996
2 40271   0.0171 294.2397 0002298 174.4627  28.0421  1.00271040 14965
ARSAT 1                 
1 40272U 14062B   18316.85102802 -.00000261  00000-0  00000-0 0  9993
2 40272   0.0456 110.6483 0001212 113.6824  62.1822  1.00271646 14807
EXPRESS-AM6             
1 40277U 14064A   18316.59070111  .00000095  00000-0  00000+0 0  9991
2 40277   0.0028  11.7944 0000563 272.3349  33.2292  1.00273328 14857
GSAT-16                 
1 40332U 14078A   18316.70338783  .00000083  00000-0  00000-0 0  9991
2 40332   0.0196 276.0688 0004378 210.9993 232.9992  1.00272277 14315
DIRECTV 14              
1 40333U 14078B   18317.56640644 -.00000126  00000-0  00000+0 0  9997
2 40333   0.0202 285.1986 0000761 171.8641  60.2702  1.00272217 14442
YAMAL 401               
1 40345U 14082A   18316.66791964 -.00000230  00000-0  00000+0 0  9993
2 40345   0.0072 209.4341 0000080 255.2329 277.4990  1.00270218 14606
ASTRA 2G                
1 40364U 14089A   18316.77762842  .00000148  00000-0  00000-0 0  9994
2 40364   0.0349  28.6257 0001020  46.7776 284.6353  1.00271958 14150
FENGYUN 2G              
1 40367U 14090A   18317.53133479 -.00000302  00000-0  00000+0 0  9994
2 40367   0.7477 107.9617 0003320 251.7647 343.7483  1.00273318 14235
INMARSAT 5-F2           
1 40384U 15005A   18317.52271677 -.00000286  00000-0  00000+0 0  9993
2 40384   0.0170 286.3831 0000224  32.5823 226.8177  1.00272512 13873
ABS-3A                  
1 40424U 15010A   18315.86683563 -.00000029  00000-0  00000-0 0  9996
2 40424   0.0145 318.7054 0001884 171.0743 230.2640  1.00271385 13602
EUTELSAT 115 WEST B     
1 40425U 15010B   18317.17405102 -.00000026  00000-0  00000+0 0  9990
2 40425   0.0124 134.6901 0000461 157.7762  67.5562  1.00270550 13638
EXPRESS-AM7             
1 40505U 15012A   18317.01690406  .00000149  00000-0  00000+0 0  9992
2 40505   0.0023 298.2468 0002225 282.9678 236.9676  1.00271505 13557
IRNSS-1D                
1 40547U 15018A   18316.34323496 -.00000310  00000-0  00000-0 0  9993
2 40547  28.8634 286.8164 0019435 186.8360 173.0976  1.00277437 13189
THOR 7                  
1 40613U 15022A   18316.85752843 -.00000009  00000-0  00000+0 0  9994
2 40613   0.0136 199.7215 0002570  21.7803 138.5058  1.00273754 13019
TURKMENALEM52E/MONACOSAT
1 40617U 15023A   18316.71164383  .00000102  00000-0  00000+0 0  9993
2 40617   0.0124 344.9573 0002325 228.5753 146.4798  1.00271198 13031
DIRECTV 15              
1 40663U 15026A   18317.13516740 -.00000117  00000-0  00000+0 0  9999
2 40663   0.0106 299.8983 0000253 165.0576 255.0744  1.00269926 12731
SKY MEXICO-1            
1 40664U 15026B   18317.07400689 -.00000236  00000-0  00000+0 0  9999
2 40664   0.0146 285.2486 0001989 304.0680 130.6935  1.00272005 12733
METEOSAT-11 (MSG-4)     
1 40732U 15034A   18317.51725828 -.00000006  00000-0  00000+0 0  9993
2 40732   1.1055 237.6460 0000926  60.0470 300.7231  1.00269761 12249
